{"https://www.kleinanzeigen.de/s-anzeige/-nur-tausch-2-5-zw-46qm-schlump-gg-kleinere/2705250145-203-9432":{"name":"(Nur Tausch) 2,5 ZW 46qm Schlump gg kleinere","url":"https://www.kleinanzeigen.de/s-anzeige/-nur-tausch-2-5-zw-46qm-schlump-gg-kleinere/2705250145-203-9432","quarter":"Eimsbüttel(Stadtteil)","postalCode":20144},"https://www.kleinanzeigen.de/s-anzeige/-tauschwohnung-sanierte-3-zimmer-wohnung/2703797164-203-9428":{"name":"[TAUSCHWOHNUNG] Sanierte 3-Zimmer Wohnung","url":"https://www.kleinanzeigen.de/s-anzeige/-tauschwohnung-sanierte-3-zimmer-wohnung/2703797164-203-9428","quarter":"Eimsbüttel(Stadtteil)","postalCode":20255},"https://www.kleinanzeigen.de/s-anzeige/1-zi-wohnung-mit-separater-kueche-und-gartenanteil-in-top-lage/2705296435-203-9475":{"name":"1 Zi Wohnung mit separater Küche und \"Gartenanteil\" in top Lage","url":"https://www.kleinanzeigen.de/s-anzeige/1-zi-wohnung-mit-separater-kueche-und-gartenanteil-in-top-lage/2705296435-203-9475","quarter":"Eppendorf","postalCode":20251},"https://www.kleinanzeigen.de/s-anzeige/2-5-zimmer-wohnung-ca-60qm-in-wentorf-bei-hamburg/2706300337-203-9519":{"name":"2,5 Zimmer-Wohnung ca.60qm in Wentorf bei Hamburg","url":"https://www.kleinanzeigen.de/s-anzeige/2-5-zimmer-wohnung-ca-60qm-in-wentorf-bei-hamburg/2706300337-203-9519","quarter":"NO QUARTER","postalCode":21029},"https://www.kleinanzeigen.de/s-anzeige/2-zimmer-wohnung-kueche-bad-balkon-/2703592471-203-9445":{"name":"2 Zimmer Wohnung (Küche + Bad + Balkon)","url":"https://www.kleinanzeigen.de/s-anzeige/2-zimmer-wohnung-kueche-bad-balkon-/2703592471-203-9445","quarter":"NO QUARTER","postalCode":21073},"https://www.kleinanzeigen.de/s-anzeige/2-zimmer-wohnung-zur-zwischenmiete/2703587958-203-9504":{"name":"2 Zimmer Wohnung zur Zwischenmiete","url":"https://www.kleinanzeigen.de/s-anzeige/2-zimmer-wohnung-zur-zwischenmiete/2703587958-203-9504","quarter":"Ottensen","postalCode":22765},"https://www.kleinanzeigen.de/s-anzeige/2-zimmerwohnung-in-eppendorf-vom-25-03-bis-08-04-frei/2703810186-203-9475":{"name":"2 Zimmerwohnung  in Eppendorf vom 25.03. bis 08.04. frei","url":"https://www.kleinanzeigen.de/s-anzeige/2-zimmerwohnung-in-eppendorf-vom-25-03-bis-08-04-frei/2703810186-203-9475","quarter":"Eppendorf","postalCode":20251},"https://www.kleinanzeigen.de/s-anzeige/2zi-whg-in-hh-eppendorf-moebliert-balkon-altbau/2652764621-203-26491":{"name":"2Zi Whg in HH-Eppendorf, möbliert, Balkon, Altbau","url":"https://www.kleinanzeigen.de/s-anzeige/2zi-whg-in-hh-eppendorf-moebliert-balkon-altbau/2652764621-203-26491","quarter":"Barmbek-​Süd","postalCode":22305},"https://www.kleinanzeigen.de/s-anzeige/3-000-belohnung-fuer-3-zimmer-wohnung/2700943331-203-9476":{"name":"3.000,- € Belohnung für 3 Zimmer-Wohnung","url":"https://www.kleinanzeigen.de/s-anzeige/3-000-belohnung-fuer-3-zimmer-wohnung/2700943331-203-9476","quarter":"Eppendorf","postalCode":20249},"https://www.kleinanzeigen.de/s-anzeige/3-monate-zwischenmiete-vollmoeblierte-wohnung-mit-garage-ab-01-0/2703851551-203-26475":{"name":"3 Monate Zwischenmiete - Vollmöblierte Wohnung mit Garage ab 01.0","url":"https://www.kleinanzeigen.de/s-anzeige/3-monate-zwischenmiete-vollmoeblierte-wohnung-mit-garage-ab-01-0/2703851551-203-26475","quarter":"Altona-​Altstadt","postalCode":22769},"https://www.kleinanzeigen.de/s-anzeige/3-zi-kft-whg-renoviert-z-t-saniert-dielenboden-und-stuck/2705257946-203-9445":{"name":"3 Zi.- Kft. Whg, renoviert z.T.saniert, Dielenboden und Stuck","url":"https://www.kleinanzeigen.de/s-anzeige/3-zi-kft-whg-renoviert-z-t-saniert-dielenboden-und-stuck/2705257946-203-9445","quarter":"NO QUARTER","postalCode":21073},"https://www.kleinanzeigen.de/s-anzeige/3-zimmer-wohnung-in-hamburg/2698876356-203-26506":{"name":"3 Zimmer Wohnung in Hamburg","url":"https://www.kleinanzeigen.de/s-anzeige/3-zimmer-wohnung-in-hamburg/2698876356-203-26506","quarter":"NO QUARTER","postalCode":22041},"https://www.kleinanzeigen.de/s-anzeige/3-zimmer-wohnung-mit-einbaukueche-01-04-2024-zu-vermieten/2703837337-203-9457":{"name":"3-Zimmer Wohnung mit Einbauküche 01.04.2024 zu vermieten","url":"https://www.kleinanzeigen.de/s-anzeige/3-zimmer-wohnung-mit-einbaukueche-01-04-2024-zu-vermieten/2703837337-203-9457","quarter":"Rahlstedt","postalCode":22149},"https://www.kleinanzeigen.de/s-anzeige/3-zimmer-wohnung-naehe-haw-bergedorf/2705476573-203-26493":{"name":"3 Zimmer-Wohnung Nähe HAW Bergedorf","url":"https://www.kleinanzeigen.de/s-anzeige/3-zimmer-wohnung-naehe-haw-bergedorf/2705476573-203-26493","quarter":"NO QUARTER","postalCode":21033},"https://www.kleinanzeigen.de/s-anzeige/exklusive-4-zimmer-wohnung-mit-terrasse-und-gartenmitnutzung-in-begehrter-wellingsbuettel-lage/2520762227-203-16440":{"name":"Exklusive 4-Zimmer-Wohnung mit Terrasse und Gartenmitnutzung in begehrter Wellingsbüttel-Lage","url":"https://www.kleinanzeigen.de/s-anzeige/exklusive-4-zimmer-wohnung-mit-terrasse-und-gartenmitnutzung-in-begehrter-wellingsbuettel-lage/2520762227-203-16440","quarter":"Alsterdorf","postalCode":22337},"https://www.kleinanzeigen.de/s-anzeige/gemuetliche-moeblierte-einzimmerwohnung-in-langenhorn-ab-april-/2703706739-203-9478":{"name":"Gemütliche möblierte Einzimmerwohnung in Langenhorn ab April!","url":"https://www.kleinanzeigen.de/s-anzeige/gemuetliche-moeblierte-einzimmerwohnung-in-langenhorn-ab-april-/2703706739-203-9478","quarter":"Fuhlsbüttel","postalCode":22339},"https://www.kleinanzeigen.de/s-anzeige/geschmackvolle-grosse-wohnung-ab-sofort-zu-vermieten/2706368895-203-9455":{"name":"Geschmackvolle große Wohnung ab sofort zu vermieten","url":"https://www.kleinanzeigen.de/s-anzeige/geschmackvolle-grosse-wohnung-ab-sofort-zu-vermieten/2706368895-203-9455","quarter":"Rahlstedt","postalCode":22143},"https://www.kleinanzeigen.de/s-anzeige/hamburg-2-zi-wohnung-im-schoenen-komponistenviertel-barmbek-sued/2703809630-203-9485":{"name":"Hamburg - 2-Zi-Wohnung im schönen Komponistenviertel/Barmbek Süd","url":"https://www.kleinanzeigen.de/s-anzeige/hamburg-2-zi-wohnung-im-schoenen-komponistenviertel-barmbek-sued/2703809630-203-9485","quarter":"Barmbek-​Süd","postalCode":22083},"https://www.kleinanzeigen.de/s-anzeige/hamburg-hohenfelde-3-zimmer-wohnung-mit-balkon/2706216519-203-9421":{"name":"Hamburg Hohenfelde / 3-Zimmer-Wohnung mit Balkon","url":"https://www.kleinanzeigen.de/s-anzeige/hamburg-hohenfelde-3-zimmer-wohnung-mit-balkon/2706216519-203-9421","quarter":"Hohenfelde","postalCode":22087},"https://www.kleinanzeigen.de/s-anzeige/helles-moebliertes-wg-zimmer-in-der-innenstadt-hamburg/2703841683-203-16462":{"name":"Helles möbliertes WG-Zimmer in der Innenstadt Hamburg","url":"https://www.kleinanzeigen.de/s-anzeige/helles-moebliertes-wg-zimmer-in-der-innenstadt-hamburg/2703841683-203-16462","quarter":"Hammerbrook","postalCode":20537},"https://www.kleinanzeigen.de/s-anzeige/ingenieur-und-lektorin-suchen-3-zimmer-wohnung/2703765840-203-26474":{"name":"Ingenieur und Lektorin suchen 3-Zimmer-Wohnung","url":"https://www.kleinanzeigen.de/s-anzeige/ingenieur-und-lektorin-suchen-3-zimmer-wohnung/2703765840-203-26474","quarter":"Altona-​Altstadt","postalCode":22767},"https://www.kleinanzeigen.de/s-anzeige/ingenieurspaar-28-29-sucht-wohnung-westlich-der-alster/2677597174-203-26477":{"name":"Ingenieurspaar (28\u002629) sucht Wohnung westlich der Alster","url":"https://www.kleinanzeigen.de/s-anzeige/ingenieurspaar-28-29-sucht-wohnung-westlich-der-alster/2677597174-203-26477","quarter":"Altona-​Nord","postalCode":20257},"https://www.kleinanzeigen.de/s-anzeige/interessante-2-zi-wohnung/2677858986-203-9507":{"name":"Interessante 2-Zi.-Wohnung","url":"https://www.kleinanzeigen.de/s-anzeige/interessante-2-zi-wohnung/2677858986-203-9507","quarter":"Rissen","postalCode":22559},"https://www.kleinanzeigen.de/s-anzeige/maisonette-wohnung-mit-tg-stellplatz-zu-vermieten/2705443672-203-29060":{"name":"Maisonette Wohnung mit TG Stellplatz zu vermieten","url":"https://www.kleinanzeigen.de/s-anzeige/maisonette-wohnung-mit-tg-stellplatz-zu-vermieten/2705443672-203-29060","quarter":"Poppenbüttel","postalCode":22395},"https://www.kleinanzeigen.de/s-anzeige/mietwohnung-im-neubau/2703728123-203-9491":{"name":"Mietwohnung im Neubau","url":"https://www.kleinanzeigen.de/s-anzeige/mietwohnung-im-neubau/2703728123-203-9491","quarter":"Niendorf","postalCode":22455},"https://www.kleinanzeigen.de/s-anzeige/mietwohnung-in-zentraler-lagen-mit-3-min-anbindung-zur-u-bahn/2705395138-203-9491":{"name":"Mietwohnung in zentraler Lagen mit 3-Min-Anbindung zur U-Bahn","url":"https://www.kleinanzeigen.de/s-anzeige/mietwohnung-in-zentraler-lagen-mit-3-min-anbindung-zur-u-bahn/2705395138-203-9491","quarter":"Niendorf","postalCode":22455},"https://www.kleinanzeigen.de/s-anzeige/mobilierte-wohnung-zur-zwischenmiete-von-01-04-2024-28-02-2025/2706338762-203-29060":{"name":"Mobilierte Wohnung zur Zwischenmiete von 01.04.2024-28.02.2025","url":"https://www.kleinanzeigen.de/s-anzeige/mobilierte-wohnung-zur-zwischenmiete-von-01-04-2024-28-02-2025/2706338762-203-29060","quarter":"Poppenbüttel","postalCode":22395},"https://www.kleinanzeigen.de/s-anzeige/moderne-3-zi-wohnung-in-hamburg-langenhorn/2706158214-203-9487":{"name":"Moderne 3 Zi.-Wohnung in Hamburg-Langenhorn","url":"https://www.kleinanzeigen.de/s-anzeige/moderne-3-zi-wohnung-in-hamburg-langenhorn/2706158214-203-9487","quarter":"Langenhorn","postalCode":22419},"https://www.kleinanzeigen.de/s-anzeige/moeblierte-1zkb-im-studenten-haus-in-hh-ottensen-frei/2603039881-203-9504":{"name":"möblierte 1ZKB im Studenten-Haus in HH-Ottensen frei","url":"https://www.kleinanzeigen.de/s-anzeige/moeblierte-1zkb-im-studenten-haus-in-hh-ottensen-frei/2603039881-203-9504","quarter":"Ottensen","postalCode":22765},"https://www.kleinanzeigen.de/s-anzeige/moeblierte-3-zimmer-wohnung-in-winterhude-am-marktplatz-vermieten/2681255871-203-9481":{"name":"Möblierte 3 Zimmer Wohnung in Winterhude am Marktplatz vermieten","url":"https://www.kleinanzeigen.de/s-anzeige/moeblierte-3-zimmer-wohnung-in-winterhude-am-marktplatz-vermieten/2681255871-203-9481","quarter":"Winterhude","postalCode":22299},"https://www.kleinanzeigen.de/s-anzeige/moeblierte-wohnung-hamburg-ottensen-altona-fuer-monteure-pendler/2706209981-203-9505":{"name":"möblierte Wohnung Hamburg Ottensen/Altona für Monteure, Pendler","url":"https://www.kleinanzeigen.de/s-anzeige/moeblierte-wohnung-hamburg-ottensen-altona-fuer-monteure-pendler/2706209981-203-9505","quarter":"Ottensen","postalCode":22763},"https://www.kleinanzeigen.de/s-anzeige/mutter-mit-kind-sucht-2-zimmer-wohnung-in-hamburg/2706267979-203-29060":{"name":"Mutter mit Kind sucht 2 Zimmer Wohnung in Hamburg","url":"https://www.kleinanzeigen.de/s-anzeige/mutter-mit-kind-sucht-2-zimmer-wohnung-in-hamburg/2706267979-203-29060","quarter":"Poppenbüttel","postalCode":22395},"https://www.kleinanzeigen.de/s-anzeige/nachmieter-fuer-apartment-in-der-hafencity-mit-wasserblick/2706126062-203-24588":{"name":"Nachmieter für Apartment in der Hafencity mit Wasserblick","url":"https://www.kleinanzeigen.de/s-anzeige/nachmieter-fuer-apartment-in-der-hafencity-mit-wasserblick/2706126062-203-24588","quarter":"NO QUARTER","postalCode":20457},"https://www.kleinanzeigen.de/s-anzeige/nachmieter-fuer-helle-2-zimmer-wohnung-zum-01-05-24-gesucht/2703787816-203-16428":{"name":"Nachmieter für helle 2 Zimmer Wohnung zum 01.05.24 gesucht","url":"https://www.kleinanzeigen.de/s-anzeige/nachmieter-fuer-helle-2-zimmer-wohnung-zum-01-05-24-gesucht/2703787816-203-16428","quarter":"Eißendorf","postalCode":21073},"https://www.kleinanzeigen.de/s-anzeige/neubau-erstbezug-in-hamburg-fuhlsbuettel/2680001906-203-9479":{"name":"Neubau / Erstbezug in Hamburg-Fuhlsbüttel","url":"https://www.kleinanzeigen.de/s-anzeige/neubau-erstbezug-in-hamburg-fuhlsbuettel/2680001906-203-9479","quarter":"Ohlsdorf","postalCode":22335},"https://www.kleinanzeigen.de/s-anzeige/nur-an-aeltere-person-heller-raum-ca-15-qm-frei-wg/2706339190-203-9510":{"name":"Nur an ältere Person! Heller Raum ca 15 qm frei WG","url":"https://www.kleinanzeigen.de/s-anzeige/nur-an-aeltere-person-heller-raum-ca-15-qm-frei-wg/2706339190-203-9510","quarter":"Iserbrook","postalCode":22589},"https://www.kleinanzeigen.de/s-anzeige/ottensen-zwischenmiete-2-zimmer-wohnung/2703647567-203-9505":{"name":"Ottensen Zwischenmiete - 2-Zimmer Wohnung","url":"https://www.kleinanzeigen.de/s-anzeige/ottensen-zwischenmiete-2-zimmer-wohnung/2703647567-203-9505","quarter":"Ottensen","postalCode":22763},"https://www.kleinanzeigen.de/s-anzeige/paar-sucht-3-zimmerwohnung-westlich-der-alster/2697261886-203-9420":{"name":"Paar sucht 3 Zimmerwohnung westlich der Alster","url":"https://www.kleinanzeigen.de/s-anzeige/paar-sucht-3-zimmerwohnung-westlich-der-alster/2697261886-203-9420","quarter":"Rotherbaum","postalCode":20148},"https://www.kleinanzeigen.de/s-anzeige/physiotherapeut-aus-der-schweiz-sucht-wohnung-in-hamburg/2673053877-203-26479":{"name":"Physiotherapeut aus der Schweiz sucht Wohnung in Hamburg","url":"https://www.kleinanzeigen.de/s-anzeige/physiotherapeut-aus-der-schweiz-sucht-wohnung-in-hamburg/2673053877-203-26479","quarter":"Altona-​Nord","postalCode":22765},"https://www.kleinanzeigen.de/s-anzeige/schoene-helle-2-zimmer-wohnung-mit-balkon-und-ebk/2706188286-203-9471":{"name":"Schöne, helle 2 Zimmer Wohnung mit Balkon und EBK","url":"https://www.kleinanzeigen.de/s-anzeige/schoene-helle-2-zimmer-wohnung-mit-balkon-und-ebk/2706188286-203-9471","quarter":"Poppenbüttel","postalCode":22393},"https://www.kleinanzeigen.de/s-anzeige/schoene-wohnung-1min-zur-elbe-von-april-juni-juli-ottensen/2706137449-203-9502":{"name":"Schöne Wohnung 1min zur Elbe von April-Juni/Juli Ottensen","url":"https://www.kleinanzeigen.de/s-anzeige/schoene-wohnung-1min-zur-elbe-von-april-juni-juli-ottensen/2706137449-203-9502","quarter":"Othmarschen","postalCode":22605},"https://www.kleinanzeigen.de/s-anzeige/sonnige-4-zimmer-wohnung-in-niendorf/2703889317-203-9493":{"name":"Sonnige 4-Zimmer-Wohnung in Niendorf","url":"https://www.kleinanzeigen.de/s-anzeige/sonnige-4-zimmer-wohnung-in-niendorf/2703889317-203-9493","quarter":"Niendorf","postalCode":22453},"https://www.kleinanzeigen.de/s-anzeige/suche-2-3-zimmer-wohnung-in-hamburg-zum-1-5-1-6-/2691503152-203-9432":{"name":"Suche 2-3 Zimmer Wohnung in Hamburg zum 1.5/1.6.","url":"https://www.kleinanzeigen.de/s-anzeige/suche-2-3-zimmer-wohnung-in-hamburg-zum-1-5-1-6-/2691503152-203-9432","quarter":"Eimsbüttel(Stadtteil)","postalCode":20144},"https://www.kleinanzeigen.de/s-anzeige/suche-wohnung-fuer-eigenbedarf/2705322334-203-9431":{"name":"Suche Wohnung für Eigenbedarf","url":"https://www.kleinanzeigen.de/s-anzeige/suche-wohnung-fuer-eigenbedarf/2705322334-203-9431","quarter":"Sternschanze","postalCode":20357},"https://www.kleinanzeigen.de/s-anzeige/top-lage-in-st-georg-2-zimmer-wohnung-mit-balkon-ab-april-2024/2643812476-203-9417":{"name":"Top-Lage in St. Georg: 2-Zimmer Wohnung mit Balkon ab April 2024","url":"https://www.kleinanzeigen.de/s-anzeige/top-lage-in-st-georg-2-zimmer-wohnung-mit-balkon-ab-april-2024/2643812476-203-9417","quarter":"St.Georg","postalCode":20099},"https://www.kleinanzeigen.de/s-anzeige/untermiete-2-zimmer-wohnung/2703871784-203-9430":{"name":"Untermiete 2 Zimmer Wohnung","url":"https://www.kleinanzeigen.de/s-anzeige/untermiete-2-zimmer-wohnung/2703871784-203-9430","quarter":"Eimsbüttel(Stadtteil)","postalCode":20253},"https://www.kleinanzeigen.de/s-anzeige/voll-moeblierte-wohnung-zur-untermiete-im-pergolenviertel-ab-15-04/2703643521-203-18783":{"name":"Voll möblierte Wohnung zur Untermiete im Pergolenviertel ab 15.04","url":"https://www.kleinanzeigen.de/s-anzeige/voll-moeblierte-wohnung-zur-untermiete-im-pergolenviertel-ab-15-04/2703643521-203-18783","quarter":"Sasel","postalCode":22393},"https://www.kleinanzeigen.de/s-anzeige/vollmoebliert-2-zimmer-wohnung-osterstrasse/2703648445-203-9429":{"name":"Vollmöbliert 2 Zimmer Wohnung Osterstrasse","url":"https://www.kleinanzeigen.de/s-anzeige/vollmoebliert-2-zimmer-wohnung-osterstrasse/2703648445-203-9429","quarter":"Eimsbüttel(Stadtteil)","postalCode":20257},"https://www.kleinanzeigen.de/s-anzeige/vollmoebliert-2-zimmer-wohnung-osterstrasse/2706205973-203-9429":{"name":"Vollmöbliert 2 Zimmer Wohnung Osterstrasse","url":"https://www.kleinanzeigen.de/s-anzeige/vollmoebliert-2-zimmer-wohnung-osterstrasse/2706205973-203-9429","quarter":"Eimsbüttel(Stadtteil)","postalCode":20257},"https://www.kleinanzeigen.de/s-anzeige/vollmoeblierte-2-zimmerwohnung-mit-balkon-zur-zwischenmiete/2705510096-203-9429":{"name":"Vollmöblierte 2-Zimmerwohnung mit Balkon zur Zwischenmiete","url":"https://www.kleinanzeigen.de/s-anzeige/vollmoeblierte-2-zimmerwohnung-mit-balkon-zur-zwischenmiete/2705510096-203-9429","quarter":"Eimsbüttel(Stadtteil)","postalCode":20257},"https://www.kleinanzeigen.de/s-anzeige/wg-1-zimmer-wohnung-fuer-damen/2706307762-203-9445":{"name":"Wg 1 Zimmer Wohnung für DAMEN","url":"https://www.kleinanzeigen.de/s-anzeige/wg-1-zimmer-wohnung-fuer-damen/2706307762-203-9445","quarter":"NO QUARTER","postalCode":21073},"https://www.kleinanzeigen.de/s-anzeige/wg-zimmer-hamburg-mitte/2703769053-203-9416":{"name":"WG-Zimmer Hamburg-Mitte","url":"https://www.kleinanzeigen.de/s-anzeige/wg-zimmer-hamburg-mitte/2703769053-203-9416","quarter":"Hammerbrook","postalCode":20097},"https://www.kleinanzeigen.de/s-anzeige/wohnen-auf-zeit-moeblierte-3-zimmer-wohnung-/2678479150-203-9429":{"name":"Wohnen auf Zeit: Möblierte 3-Zimmer-Wohnung!","url":"https://www.kleinanzeigen.de/s-anzeige/wohnen-auf-zeit-moeblierte-3-zimmer-wohnung-/2678479150-203-9429","quarter":"Eimsbüttel(Stadtteil)","postalCode":20257},"https://www.kleinanzeigen.de/s-anzeige/wohnung-barmbek-nord-quartier-21/2706372020-203-9449":{"name":"Wohnung Barmbek Nord Quartier 21","url":"https://www.kleinanzeigen.de/s-anzeige/wohnung-barmbek-nord-quartier-21/2706372020-203-9449","quarter":"Barmbek","postalCode":22307},"https://www.kleinanzeigen.de/s-anzeige/wohnung-fuer-3-monate-zur-miete/2706162289-203-9433":{"name":"Wohnung für 3 Monate zur Miete","url":"https://www.kleinanzeigen.de/s-anzeige/wohnung-fuer-3-monate-zur-miete/2706162289-203-9433","quarter":"Rotherbaum","postalCode":20146},"https://www.kleinanzeigen.de/s-anzeige/wohnung-in-hamburg-gesucht/2698102975-203-9428":{"name":"Wohnung in Hamburg gesucht","url":"https://www.kleinanzeigen.de/s-anzeige/wohnung-in-hamburg-gesucht/2698102975-203-9428","quarter":"Eimsbüttel(Stadtteil)","postalCode":20255},"https://www.kleinanzeigen.de/s-anzeige/wohnung-in-hh-bergedorf-2-z-76m2-ebk-balkon/2705516048-203-9519":{"name":"Wohnung in HH-Bergedorf, 2-Z, 76m2, EBK, Balkon","url":"https://www.kleinanzeigen.de/s-anzeige/wohnung-in-hh-bergedorf-2-z-76m2-ebk-balkon/2705516048-203-9519","quarter":"NO QUARTER","postalCode":21029},"https://www.kleinanzeigen.de/s-anzeige/zwischenmiete-im-april-helle-2-5-zimmer-wohnung-hamburg-altona/2705508884-203-9504":{"name":"Zwischenmiete im April: helle 2,5-Zimmer Wohnung / Hamburg Altona","url":"https://www.kleinanzeigen.de/s-anzeige/zwischenmiete-im-april-helle-2-5-zimmer-wohnung-hamburg-altona/2705508884-203-9504","quarter":"Ottensen","postalCode":22765}}